Station_Type,Activated,Station_ID,Station_Name,County,District,T_Status,Num_Mrt,Num_Train,Num_Thsr,Station_Address,lat,lng
TpMrt,1,BL01,頂埔站,新北市,土城區,N,1,0,0,新北市土城區中央路4段51之6號,24.96012,121.4205
TpMrt,1,BL02,永寧站,新北市,土城區,N,1,0,0,新北市土城區中央路3段105號,24.966820000000002,121.43613
TpMrt,1,BL03,土城站,新北市,土城區,N,1,0,0,新北市土城區金城路1段105號,24.973129999999998,121.44431999999999
TpMrt,1,BL04,海山站,新北市,土城區,N,1,0,0,新北市土城區海山路39號,24.985305,121.44873
TpMrt,1,BL05,亞東醫院站,新北市,板橋區,N,1,0,0,新北市板橋區南雅南路2段17號,24.998279999999998,121.45246499999999
TpMrt,1,BL06,府中站,新北市,板橋區,N,1,0,0,新北市板橋區縣民大道1段193號,25.008465,121.459276
TpMrt_Train_Thsr,1,BL07_Y16_1020_Banqiao,板橋站,新北市,板橋區,MTH,2,1,1,新北市板橋區站前路5號,25.014184600000004,121.4637528
TpMrt,1,BL08,新埔站,新北市,板橋區,N,1,0,0,新北市板橋區民生路3段2號,25.02327,121.468055
TpMrt,1,BL09,江子翠站,新北市,板橋區,N,1,0,0,新北市板橋區文化路2段296號,25.030265,121.47256999999999
TpMrt,1,BL10,龍山寺站,台北市,萬華區,N,1,0,0,台北市萬華區西園路1段153號,25.03528,121.500325
TpMrt,1,BL13,善導寺站,台北市,中正區,N,1,0,0,台北市中正區忠孝東路1段58號,25.04468,121.523885
TpMrt,1,BL16,忠孝敦化站,台北市,大安區,N,1,0,0,台北市大安區忠孝東路4段182號,25.041504999999997,121.55045
TpMrt,1,BL17,國父紀念館站,台北市,信義區,N,1,0,0,台北市信義區忠孝東路4段400號,25.04137,121.55781499999999
TpMrt,1,BL18,市政府站,台北市,信義區,N,1,0,0,台北市信義區忠孝東路5段2號,25.041135,121.56568500000002
TpMrt,1,BL19,永春站,台北市,信義區,N,1,0,0,台北市信義區忠孝東路5段455號,25.040855,121.5762
TpMrt,1,BL20,後山埤站,台北市,南港區,N,1,0,0,台北市南港區忠孝東路6段2號,25.044715,121.58227
TpMrt,1,BL21,昆陽站,台北市,南港區,N,1,0,0,台北市南港區忠孝東路6段451號,25.050459,121.593228
TpMrt_Train_Thsr,1,BL22_0980_Nangang,南港站,台北市,南港區,MTH,1,1,1,台北市南港區忠孝東路7段380號,25.052035,121.60696999999999
TpMrt,1,BR01,動物園站,台北市,文山區,N,1,0,0,台北市文山區新光路2段32號,24.998205,121.57950100000001
TpMrt,1,BR02,木柵站,台北市,文山區,N,1,0,0,台北市文山區木柵路4段135號,24.99824,121.573127
TpMrt,1,BR03,萬芳社區站,台北市,文山區,N,1,0,0,台北市文山區萬芳路60號,24.99857,121.56808799999999
TpMrt,1,BR04,萬芳醫院站,台北市,文山區,N,1,0,0,台北市文山區興隆路3段113號,24.99932,121.55809199999999
TpMrt,1,BR05,辛亥站,台北市,文山區,N,1,0,0,台北市文山區辛亥路4段128號,25.005454999999998,121.557046
TpMrt,1,BR06,麟光站,台北市,大安區,N,1,0,0,台北市大安區和平東路3段410號,25.018495,121.558834
TpMrt,1,BR07,六張犁站,台北市,大安區,N,1,0,0,台北市大安區和平東路3段168號,25.02381,121.55301999999999
TpMrt,1,BR08,科技大樓站,台北市,大安區,N,1,0,0,台北市大安區復興南路2段235號,25.026120000000002,121.543462
TpMrt,1,BR10_BL15,忠孝復興站,台北市,大安區,M,2,0,0,台北市大安區忠孝東路3段302號,25.041749,121.54502600000001
TpMrt,1,BR11_G16,南京復興站,台北市,松山區,M,2,0,0,台北市松山區南京東路3段253號,25.052044,121.544303
TpMrt,1,BR12,中山國中站,台北市,中山區,N,1,0,0,台北市中山區復興北路376號,25.06085,121.544215
TpMrt,1,BR13,松山機場站,台北市,松山區,N,1,0,0,台北市松山區敦化北路338號,25.062908,121.55201000000001
TpMrt,1,BR14,大直站,台北市,中山區,N,1,0,0,台北市中山區北安路534之1號,25.07943,121.54678999999999
TpMrt,1,BR15,劍南路站,台北市,中山區,N,1,0,0,台北市中山區北安路798號,25.08483,121.555582
TpMrt,1,BR16,西湖站,台北市,內湖區,N,1,0,0,台北市內湖區內湖路1段256號,25.082160000000002,121.567227
TpMrt,1,BR17,港墘站,台北市,內湖區,N,1,0,0,台北市內湖區內湖路1段663號,25.080070000000003,121.57516000000001
TpMrt,1,BR18,文德站,台北市,內湖區,N,1,0,0,台北市內湖區文德路214號,25.078454999999998,121.584999
TpMrt,1,BR19,內湖站,台北市,內湖區,N,1,0,0,台北市內湖區成功路4段186號,25.083675,121.59436299999999
TpMrt,1,BR20,大湖公園站,台北市,內湖區,N,1,0,0,台北市內湖區成功路5段11號,25.083804999999998,121.60221399999999
TpMrt,1,BR21,葫洲站,台北市,內湖區,N,1,0,0,台北市內湖區康寧路3段16號,25.07271,121.607146
TpMrt,1,BR22,東湖站,台北市,內湖區,N,1,0,0,台北市內湖區康寧路3段235號,25.067455,121.611535
TpMrt,1,BR23,南港軟體園區站,台北市,南港區,N,1,0,0,台北市南港區經貿二路183號,25.05992,121.615
TpMrt,1,BR24_BL23,南港展覽館站,台北市,南港區,M,2,0,0,文湖線：115018台北市南港區南港路1段32號,25.054919,121.61686100000001
TpMrt,1,G01,新店站,新北市,新店區,N,1,0,0,新北市新店區北宜路1段2號,24.95761,121.53746000000001
TpMrt,1,G02,新店區公所站,新北市,新店區,N,1,0,0,新北市新店區北新路1段295號,24.96744,121.5413
TpMrt,1,G03,七張站,新北市,新店區,N,1,0,0,新北市新店區北新路2段150號,24.97545,121.54298500000002
TpMrt,1,G03A,小碧潭站,新北市,新店區,N,1,0,0,新北市新店區中央路151號,24.97188,121.53058
TpMrt,1,G04_Y07,大坪林站,新北市,新店區,M,2,0,0,新北市新店區北新路3段190號,24.98272,121.54133999999999
TpMrt,1,G05,景美站,台北市,文山區,N,1,0,0,台北市文山區羅斯福路6段216號,24.992824,121.540697
TpMrt,1,G06,萬隆站,台北市,文山區,N,1,0,0,台北市文山區羅斯福路5段214號,25.001978,121.53900800000001
TpMrt,1,G07,公館站,台北市,中正區,N,1,0,0,台北市中正區羅斯福路4段64之1號,25.014781,121.53435800000001
TpMrt,1,G08,台電大樓站,台北市,中正區,N,1,0,0,台北市中正區羅斯福路3段126之5號,25.020733,121.528143
TpMrt,1,G09_O05,古亭站,台北市,中正區,M,2,0,0,台北市中正區羅斯福路2段164之1號,25.026373,121.52286799999999
TpMrt,1,G11,小南門站,台北市,中正區,N,1,0,0,台北市中正區愛國西路22號,25.035585,121.51088
TpMrt,1,G12_BL11,西門站,台北市,中正區,M,2,0,0,台北市中正區寶慶路32之1號,25.042025,121.508175
TpMrt,1,G13,北門站,台北市,大同區,N,1,0,0,台北市大同區塔城街10號,25.049554,121.51018400000001
TpMrt,1,G15_O08,松江南京站,台北市,中山區,M,2,0,0,台北市中山區松江路126號,25.052692999999998,121.53285
TpMrt,1,G17,台北小巨蛋站,台北市,松山區,N,1,0,0,台北市松山區南京東路4段10之1號,25.05152,121.552549
TpMrt,1,G18,南京三民站,台北市,松山區,N,1,0,0,台北市松山區南京東路5段237號,25.051588,121.56471
TpMrt_Train,1,G19_0990,松山站,台北市,松山區,MT,1,1,0,台北市松山區八德路4段742號,25.050117999999998,121.577706
TpMrt,0,LB01_BL01,頂埔站(規劃中),新北市,土城區,M,2,0,0,新北市土城區台3線74號,24.96012,121.4205
TpMrt,0,LB02,媽祖田站(規劃中),新北市,土城區,N,1,0,0,新北市土城區中央路四段281之6號,24.953573199999997,121.4121544
TpMrt,0,LB03,長壽山站(規劃中),新北市,三峽區,N,1,0,0,新北市三峽區介壽路三段211號,24.9443076,121.40271299999999
TpMrt,0,LB04,橫溪站(規劃中),新北市,三峽區,N,1,0,0,新北市三峽區佳興路,24.9377652,121.3915121
TpMrt,0,LB05,龍埔站(規劃中),新北市,三峽區,N,1,0,0,新北市三峽區三樹路98巷175號,24.9398862,121.38453829999999
TpMrt,0,LB06,三峽站(規劃中),新北市,三峽區,N,1,0,0,新北市三峽區國慶路102號,24.9389521,121.37650249999999
TpMrt,0,LB07,台北大學站(規劃中),新北市,三峽區,N,1,0,0,新北市三峽區台北大學(三峽校區),24.9390056,121.36726499999999
TpMrt,0,LB08,鶯歌車站(規劃中),新北市,鶯歌區,N,1,0,0,新北市鶯歌區館前路239號,24.9529573,121.3558254
TpMrt,0,LB09,陶瓷老街站(規劃中),新北市,鶯歌區,N,1,0,0,新北市鶯歌區建國路197號,24.952921399999997,121.3490689
TpMrt,0,LB10,國華站(規劃中),新北市,鶯歌區,N,1,0,0,新北市鶯歌區國華路56號,24.9549926,121.3424284
TpMrt,0,LB11,永吉公園站(規劃中),新北市,鶯歌區,N,1,0,0,新北市鶯歌區德昌街1號,24.9608684,121.33416650000001
TpMrt,0,LB12,鶯桃福德站(規劃中),新北市,鶯歌區,N,1,0,0,新北市鶯歌區福德一路1號,24.9666848,121.3297463
TpMrt,0,LB13,豎啣埤站(規劃中),桃園市,八德區,N,1,0,0,桃園市八德區和平路471號,24.957577399999998,121.31061709999999
TpMrt_TyMrt,0,LB14_G04,大湳站(規劃中),桃園市,八德區,M,2,0,0,桃園市八德區介壽路二段60號,24.9564427,121.2988097
TpMrt,0,LG01_R08_G10,中正紀念堂站(規劃中),台北市,中正區,M,3,0,0,台北市中正區南海路b1號,25.032767,121.518273
TpMrt,0,LG02,植物園站(規劃中),台北市,中正區,N,1,0,0,台北市中正區南海路67號,25.0306281,121.5090895
TpMrt,0,LG03,廈安站(規劃中),台北市,中正區,N,1,0,0,台北市中正區中華路二段212號,25.0301032,121.50415420000002
TpMrt,0,LG04,加蚋站(規劃中),台北市,萬華區,N,1,0,0,台北市萬華區萬大路385-2號,25.0225933,121.49928329999999
TpMrt,0,LG05,永和站(規劃中),新北市,永和區,N,1,0,0,新北市永和區保生路11號,25.0083451,121.50568840000001
TpMrt,0,LG06_Y12,中和站(規劃中),新北市,中和區,M,2,0,0,新北市中和區景平路601號,25.001981,121.496052
TpMrt,0,LG07,雙和醫院站(規劃中),新北市,中和區,N,1,0,0,新北市中和區連城路299號,24.9962977,121.48996000000001
TpMrt,0,LG08,中和高中站(規劃中),新北市,中和區,N,1,0,0,新北市中和區北88鄉道547號,24.9949267,121.4802611
TpMrt,0,LG08A,莒光站(規劃中),新北市,中和區,N,1,0,0,新北市中和區莒光路222-5號,24.9947516,121.4690709
TpMrt,0,LG09,廷寮站(規劃中),新北市,土城區,N,1,0,0,新北市土城區金城路三段35號,24.986699899999998,121.46563770000002
TpMrt,0,LG10,清水站(規劃中),新北市,土城區,N,1,0,0,新北市土城區金城路二段246號,24.9833035,121.4570037
TpMrt,0,LG11_BL03,土城站(規劃中),新北市,土城區,M,2,0,0,新北市土城區捷運土城站,24.973129999999998,121.44431999999999
TpMrt,0,LG12,埤塘站(規劃中),新北市,土城區,N,1,0,0,新北市土城區金城路一段1號,24.968839199999998,121.43909450000001
TpMrt,0,LG13,中華中學站(規劃中),新北市,土城區,N,1,0,0,新北市土城區中華路二段171號1,24.9753604,121.43861170000001
TpMrt,0,LG14,溪州站(規劃中),新北市,樹林區,N,1,0,0,無資料,24.9846382,121.42598390000002
TpMrt,0,LG15,彭福站(規劃中),新北市,樹林區,N,1,0,0,新北市樹林區中華路72號,24.981555399999998,121.4198148
TpMrt,0,LG16,育林國小站(規劃中),新北市,樹林區,N,1,0,0,新北市樹林區大安路435號,24.9882266,121.41513710000001
TpMrt,0,LG17,樹人家商站(規劃中),新北市,樹林區,N,1,0,0,新北市樹林區大安路287號,24.994314000000003,121.41935349999999
TpMrt,0,LG18,潭底站(規劃中),新北市,樹林區,N,1,0,0,新北市樹林區中正路103號,25.0009943,121.42537240000001
TpMrt,0,LG19,監理所站(規劃中),新北市,樹林區,N,1,0,0,新北市樹林區中正路423號,25.0078298,121.41688590000001
TpMrt,0,LG20,三角埔站(規劃中),新北市,樹林區,N,1,0,0,新北市樹林區中正路755號,25.015287100000002,121.41060949999999
TpMrt_TyMrt,0,LG21_BRH8_O21,迴龍站(規劃中),新北市,新莊區,M,3,0,0,新北市新莊區新北大道七段219號迴龍站 242,25.022107000000002,121.41175700000001
TpMrt,1,O01,南勢角站,新北市,中和區,N,1,0,0,新北市中和區捷運路6號,24.990064999999998,121.50923700000001
TpMrt,1,O02_Y11,景安站,新北市,中和區,M,2,0,0,新北市中和區景平路486號,24.993920000000003,121.50511399999999
TpMrt,1,O03,永安市場站,新北市,中和區,N,1,0,0,新北市中和區中和路388號,25.002895000000002,121.511225
TpMrt,1,O04,頂溪站,新北市,永和區,N,1,0,0,新北市永和區永和路2段168號,25.013858,121.51546200000001
TpMrt,1,O07_BL14,忠孝新生站,台北市,大安區,M,2,0,0,台北市大安區新生南路1段67號,25.042498000000002,121.53321000000001
TpMrt,1,O09,行天宮站,台北市,中山區,N,1,0,0,台北市中山區松江路316號,25.05924,121.53315
TpMrt,1,O10,中山國小站,台北市,中山區,N,1,0,0,台北市中山區民權東路1段71號,25.062665,121.52660900000001
TpMrt,1,O12,大橋頭站,台北市,大同區,N,1,0,0,台北市大同區民權西路223號,25.06322,121.513003
TpMrt,1,O13,台北橋站,新北市,三重區,N,1,0,0,新北市三重區重新路1段108號,25.063075,121.500575
TpMrt,1,O14,菜寮站,新北市,三重區,N,1,0,0,新北市三重區重新路3段150號,25.059451,121.491421
TpMrt_TyMrt,1,O15_A2,三重站,新北市,三重區,M,2,0,0,新北市三重區捷運路36號,25.05571,121.48422
TpMrt,1,O16,先嗇宮站,新北市,三重區,N,1,0,0,新北市三重區重新路5段515號,25.04632,121.47165
TpMrt,1,O17_Y18,頭前庄站,新北市,新莊區,M,2,0,0,新北市新莊區思源路18號,25.039862,121.460479
TpMrt,1,O18,新莊站,新北市,新莊區,N,1,0,0,新北市新莊區中正路138號,25.03608,121.45218
TpMrt,1,O19,輔大站,新北市,新莊區,N,1,0,0,新北市新莊區中正路510之1號,25.03279,121.43573500000001
TpMrt,1,O20,丹鳳站,新北市,新莊區,N,1,0,0,新北市新莊區中正路624之1號,25.029073,121.422422
TpMrt,1,O21,迴龍站,新北市,新莊區,N,1,0,0,新北市新莊區中正路758號,25.022107000000002,121.41175700000001
TpMrt,1,O50,三重國小站,新北市,三重區,N,1,0,0,新北市三重區三和路3段5號,25.070275,121.49701
TpMrt,1,O51,三和國中站,新北市,三重區,N,1,0,0,新北市三重區三和路4段107號,25.07646,121.486795
TpMrt,1,O52,徐匯中學站,新北市,蘆洲區,N,1,0,0,新北市蘆洲區中山一路3號,25.080485,121.479945
TpMrt,1,O53,三民高中站,新北市,蘆洲區,N,1,0,0,新北市蘆洲區三民路105號,25.085425,121.47336499999999
TpMrt,1,O54,蘆洲站,新北市,蘆洲區,N,1,0,0,新北市蘆洲區三民路386號,25.091520000000003,121.46471000000001
TpMrt,1,R02,象山站,台北市,信義區,N,1,0,0,台北市信義區信義路5段152號,25.032395,121.57011599999998
TpMrt,1,R03,台北101/世貿站,台北市,信義區,N,1,0,0,台北市信義區信義路5段20號,25.032865,121.563667
TpMrt,1,R04,信義安和站,台北市,大安區,N,1,0,0,台北市大安區信義路4段212之1號,25.033015,121.55232600000001
TpMrt,1,R05_BR09,大安站,台北市,大安區,M,2,0,0,台北市大安區信義路3段180號,25.033310999999998,121.54236999999999
TpMrt,1,R06,大安森林公園站,台北市,大安區,N,1,0,0,台北市大安區信義路3段100號,25.033225,121.536151
TpMrt,1,R07_O06,東門站,台北市,大安區,M,2,0,0,台北市大安區信義路2段166號,25.033894,121.52876599999999
TpMrt,1,R08_G10,中正紀念堂站,台北市,中正區,M,2,0,0,台北市中正區羅斯福路1段8之1號,25.032767,121.518273
TpMrt,1,R09,台大醫院站,台北市,中正區,N,1,0,0,台北市中正區公園路52號,25.041399,121.51602
TpMrt_TyMrt_Train_Thsr,1,R10_BL12_A1_1000_Taipei,台北車站,台北市,中正區,MTH,3,1,1,台北市中正區忠孝西路1段49號,25.047701999999997,121.5173735
TpMrt,1,R11_G14,中山站,台北市,大同區,M,2,0,0,台北市大同區南京西路16號,25.052621,121.52036399999999
TpMrt,1,R12,雙連站,台北市,大同區,N,1,0,0,台北市大同區民生西路47號,25.057575,121.52068500000001
TpMrt,1,R13_O11,民權西路站,台北市,大同區,M,2,0,0,台北市大同區民權西路72號,25.06235,121.519585
TpMrt,1,R14,圓山站,台北市,大同區,N,1,0,0,台北市大同區酒泉街9之1號,25.071409,121.520074
TpMrt,1,R15,劍潭站,台北市,士林區,N,1,0,0,台北市士林區中山北路5段65號,25.084201,121.524955
TpMrt,1,R16,士林站,台北市,士林區,N,1,0,0,台北市士林區福德路1號,25.093492,121.52623
TpMrt,1,R17,芝山站,台北市,士林區,N,1,0,0,台北市士林區福國路70號,25.102718,121.52254599999999
TpMrt,1,R18,明德站,台北市,北投區,N,1,0,0,台北市北投區明德路95號,25.109815,121.51878500000001
TpMrt,1,R19,石牌站,台北市,北投區,N,1,0,0,台北市北投區石牌路1段200號,25.114455,121.51557199999999
TpMrt,1,R20,唭哩岸站,台北市,北投區,N,1,0,0,台北市北投區東華街2段301號,25.120852,121.506234
TpMrt,1,R21,奇岩站,台北市,北投區,N,1,0,0,台北市北投區三合街2段489號,25.12547,121.50113999999999
TpMrt,1,R22,北投站,台北市,北投區,N,1,0,0,台北市北投區光明路1號,25.131819,121.498648
TpMrt,1,R22A,新北投站,台北市,北投區,N,1,0,0,台北市北投區大業路700號,25.136931,121.502595
TpMrt,1,R23,復興崗站,台北市,北投區,N,1,0,0,台北市北投區中央北路3段53巷10號,25.137497,121.485456
TpMrt,1,R24,忠義站,台北市,北投區,N,1,0,0,台北市北投區中央北路4段301號,25.130923000000003,121.473298
TpMrt,1,R25,關渡站,台北市,北投區,N,1,0,0,台北市北投區大度路3段296巷51號,25.125510000000002,121.46700000000001
TpMrt,1,R26,竹圍站,新北市,淡水區,N,1,0,0,新北市淡水區民權路50號,25.1369,121.45955
TpMrt_TpLr,1,R27_V01,紅樹林站,新北市,淡水區,N,2,0,0,新北市淡水區中正東路2段68號,25.15399,121.4588
TpMrt,1,R28,淡水站,新北市,淡水區,N,1,0,0,新北市淡水區中正路1號,25.167745,121.44580500000001
TpLr,1,V02,竿蓁林站,新北市,淡水區,N,1,0,0,新北市淡水區淡海輕軌竿蓁林站,25.161769,121.456405
TpLr,1,V03,淡金鄧公站,新北市,淡水區,N,1,0,0,新北市淡水區淡海輕軌淡金鄧公站,25.16926,121.46083
TpLr,1,V04,淡江大學站,新北市,淡水區,N,1,0,0,新北市淡水區淡海輕軌淡江大學站,25.1756661,121.4567703
TpLr,1,V05,淡金北新站,新北市,淡水區,N,1,0,0,新北市淡水區淡海輕軌淡金北新站,25.181535,121.451393
TpLr,1,V06,新市一路站,新北市,淡水區,N,1,0,0,新北市淡水區淡海輕軌新市一路站,25.183637,121.44845
TpLr,1,V07,淡水行政中心站,新北市,淡水區,N,1,0,0,新北市淡水區淡海輕軌淡水行政中心站,25.189163,121.443382
TpLr,1,V08,濱海義山站,新北市,淡水區,N,1,0,0,新北市淡水區淡海輕軌濱海義山站,25.189597199999998,121.4374418
TpLr,1,V09,濱海沙崙站,新北市,淡水區,N,1,0,0,新北市淡水區淡海輕軌濱海沙崙站,25.190641,121.43157099999999
TpLr,1,V10,淡海新市鎮站,新北市,淡水區,N,1,0,0,新北市淡水區淡海輕軌淡海新市鎮站,25.195698999999998,121.43248700000001
TpLr,1,V11,崁頂站,新北市,淡水區,N,1,0,0,新北市淡水區淡海輕軌崁頂站,25.200904,121.434623
TpLr,1,V26,淡水魚人碼頭站,新北市,淡水區,N,1,0,0,新北市淡水區淡海輕軌淡水漁人碼頭站,25.182015,121.418627
TpLr,1,V27,沙崙站,新北市,淡水區,N,1,0,0,新北市淡水區淡海輕軌濱海沙崙站,25.190518,121.43138
TpLr,1,V28,台北海洋大學站,新北市,淡水區,N,1,0,0,新北市淡水區淡海輕軌台北海洋大學站,25.191141000000002,121.426376
TpMrt,0,Y01_BR01,動物園站(規劃中),台北市,文山區,M,2,0,0,台北市文山區新光路二段32號動物園站,24.998205,121.57950100000001
TpMrt,0,Y02,政大站(規劃中),台北市,文山區,N,1,0,0,台北市文山區莊敬外舍(4~8),24.987918184503698,121.577303265765
TpMrt,0,Y03,文山區公所站(規劃中),台北市,文山區,N,1,0,0,台北市文山區木柵路三段242號,24.9906476549866,121.570910041481
TpMrt,0,Y04,馬明潭站(規劃中),台北市,文山區,N,1,0,0,台北市文山區木柵路二段107號,24.9888706822498,121.56174060296999
TpMrt,0,Y05,溝子口站(規劃中),台北市,文山區,N,1,0,0,台北市文山區106縣道88號,24.987575114605498,121.550597029513
TpMrt,0,Y06,寶斗厝站(規劃中),新北市,新店區,N,1,0,0,新北市新店區寶橋路235巷125號,24.983955294752697,121.549933361371
TpMrt,1,Y08,十四張站,新北市,新店區,N,1,0,0,新北市新店區民權路282號,24.984333,121.527698
TpMrt,1,Y09,秀朗橋站,新北市,中和區,N,1,0,0,新北市中和區景平路2號,24.990548999999998,121.525051
TpMrt,1,Y10,景平站,新北市,中和區,N,1,0,0,新北市中和區景平路121號,24.991968,121.516553
TpMrt,1,Y12,中和站,新北市,中和區,N,1,0,0,新北市中和區中山路二段271號,25.001981,121.496052
TpMrt,1,Y13,橋和站,新北市,中和區,N,1,0,0,新北市中和區板南路430號,25.004413,121.49046100000001
TpMrt,1,Y14,中原站,新北市,中和區,N,1,0,0,新北市中和區板南路510號,25.00841,121.484159
TpMrt,1,Y15,板新站,新北市,板橋區,N,1,0,0,新北市板橋區板新路109號,25.014491,121.47221200000001
TpMrt,1,Y17,新埔民生站,新北市,板橋區,N,1,0,0,新北市板橋區民生路3段70號,25.026125,121.466839
TpMrt,1,Y19,幸福站,新北市,新莊區,N,1,0,0,新北市新莊區思源路292號,25.050282,121.46021599999999
TpMrt_TyMrt,1,Y20_A3,新北產業園區站,新北市,新莊區,M,2,0,0,新北市新莊區五工路35號,25.061548000000002,121.459926
TpMrt,0,Y21,工商展覽中心站(規劃中),新北市,五股區,N,1,0,0,新北市五股區五工路126號,25.0676091921148,121.45305143774999
TpMrt,0,Y22,更寮站(規劃中),新北市,五股區,N,1,0,0,新北市五股區中興路二段37巷19號,25.0749597515318,121.461142846103
TpMrt,0,Y23,中路站(規劃中),新北市,蘆洲區,N,1,0,0,新北市蘆洲區中山一路387號,25.0774971473547,121.469741190346
TpMrt,0,Y24_O52,徐匯中學站(規劃中),新北市,蘆洲區,M,2,0,0,新北市蘆洲區中山一路2號,25.080485,121.479945
TpMrt,0,Y25,分子尾站(規劃中),新北市,三重區,N,1,0,0,新北市三重區集賢路186-12號,25.089143443637198,121.485944716453
TpMrt,0,Y26,五華國小站(規劃中),新北市,三重區,N,1,0,0,新北市三重區103甲縣道60號,25.087914668808605,121.493132187109
TpMrt,0,Y27,社子站(規劃中),台北市,士林區,N,1,0,0,台北市士林區中正路580號,25.0873775758283,121.510484835513
TpMrt,0,Y28,士林區公所站(規劃中),台北市,士林區,N,1,0,0,台北市士林區士林區行政中心(中正),25.0932002175277,121.51988431208099
TpMrt,0,Y29_R16,士林站(規劃中),台北市,士林區,M,2,0,0,台北市士林區中正路249號,25.093492,121.52623
TpMrt,0,Y30,雨農站(規劃中),台北市,士林區,N,1,0,0,台北市士林區士林官邸(中正),25.096642447817697,121.531600240812
TpMrt,0,Y31,故宮博物院站(規劃中),台北市,士林區,N,1,0,0,台北市士林區至善路二段133-1號,25.0987572267797,121.54738221525801
TpMrt,0,Y32_BR15,劍南路站(規劃中),台北市,中山區,M,2,0,0,台北市中山區劍南路站,25.08483,121.555582
TyMrt,1,A4,新莊副都心站,新北市,新莊區,N,1,0,0,台一線中山路北側新五路與五工六路間,25.059247600000003,121.44631909999998
TyMrt,1,A5,泰山站,新北市,泰山區,N,1,0,0,新北市泰山區中山路與泰林路交口,25.053272600000003,121.4395294
TyMrt,1,A6,泰山貴和站,新北市,泰山區,N,1,0,0,新北市泰山區中山路與貴陽街交口,25.033503,121.42230970000001
TyMrt,1,A7,體育大學站,桃園市,龜山區,N,1,0,0,桃園市龜山區文化一路與青山路交口北側,25.041245999999997,121.385434
TyMrt,1,A8,長庚醫院站,桃園市,龜山區,N,1,0,0,桃園市龜山區文化一路與復興一路交口,25.060080499999998,121.37092439999999
TyMrt,1,A9,林口站,新北市,林口區,N,1,0,0,新北市林口區文化三路與八德路交口,25.0658742,121.36140060000001
TyMrt,1,A10,山鼻站,桃園市,蘆竹區,N,1,0,0,桃園市蘆竹區南山路山鼻橋南側,25.0807591,121.28482890000001
TyMrt,1,A11,坑口站,桃園市,蘆竹區,N,1,0,0,桃園市蘆竹區坑口村附近,25.086516,121.26644879999999
TyMrt,1,A12,機場第一航廈站,桃園市,大園區,N,1,0,0,台灣桃園國際機場第一航廈航站南路下方,25.081746,121.2391751
TyMrt,1,A13,機場第二航廈站,桃園市,大園區,N,1,0,0,台灣桃園國際機場第二航廈下方,25.077070000000003,121.231885
TyMrt,1,A14,機場第三航廈站,桃園市,大園區,N,1,0,0,台灣桃園國際機場第三航廈西側,25.077070000000003,121.231885
TyMrt,1,A14a,機場旅館站,桃園市,大園區,N,1,0,0,台灣桃園國際機場過境旅館附近,25.0692598,121.22093899999999
TyMrt,1,A15,大園站,桃園市,大園區,N,1,0,0,國道2號高速公路大園交流道附近,25.0559699,121.21049540000001
TyMrt,1,A16,橫山站,桃園市,大園區,N,1,0,0,桃園市大園區橫山社區自強橋附近,25.036607800000002,121.2157284
TyMrt,1,A17,領航站,桃園市,大園區,N,1,0,0,高鐵桃園車站特定區東北側,25.024174300000002,121.22111149999999
TyMrt_Thsr,1,A18_Taoyuan,高鐵桃園站,桃園市,中壢區,MH,1,0,1,高鐵桃園車站北側,25.013762,121.21416200000002
TyMrt,1,A19,桃園體育園區站,桃園市,中壢區,N,1,0,0,高鐵桃園車站特定區西南側,25.001996,121.20349499999999
TyMrt,1,A20,興南站,桃園市,中壢區,N,1,0,0,桃園市中壢區中豐北路下興南附近,24.980184,121.21626599999999
TyMrt,1,A21,環北站,桃園市,中壢區,N,1,0,0,桃園市中壢區中豐路與環北路交口,24.967197,121.22113
TyMrt,0,A22,老街溪站(規劃中),桃園市,中壢區,N,1,0,0,桃園市中壢區中央西路與中豐路口永興公園,24.958899,121.21943200000001
TyMrt_Train,0,A23_1100,中壢車站(規劃中),桃園市,中壢區,MT,1,1,0,台鐵中壢站後站之健行路下方,24.9537299,121.22559440000002
TyMrt,0,G01,八德站(規劃中),桃園市,八德區,N,1,0,0,八德區擴大都市計畫區建德路與興豐路口附近,24.9293133,121.28112050000001
TyMrt,0,G02,建國路站(規劃中),桃園市,八德區,N,1,0,0,八德區六號生活圈道路與建國路路口 附近,24.937020899999997,121.28867890000001
TyMrt,0,G03,麻園站(規劃中),桃園市,八德區,N,1,0,0,八德區介壽路二段麻園地區,24.9430077,121.297207
TyMrt,0,G05,忠勇西街站(規劃中),桃園市,八德區,N,1,0,0,八德區介壽路一段與忠勇西街路口附近,24.968838,121.3012425
TyMrt,0,G06,陽明公園站(規劃中),桃園市,桃園區,N,1,0,0,桃園區介壽路一段與介新街路口附近,24.980802899999997,121.3061656
TyMrt,0,G07_BRH1_1080,桃園車站(規劃中),桃園市,桃園區,MT,2,1,0,桃園區延平路桃園火車站,24.9886541,121.3142952
TyMrt,0,G08,永和市場站(規劃中),桃園市,桃園區,N,1,0,0,桃園區中正路永和市場前,24.9970076,121.30983619999999
TyMrt,0,G09,民光路站(規劃中),桃園市,桃園區,N,1,0,0,桃園區中正路與民光路路口附近,25.0035443,121.30514509999999
TyMrt,0,G10_O14,大興西路站(規劃中),桃園市,桃園區,M,2,0,0,桃園區中正路與大興西路路口附近,25.0123436,121.30032240000001
TyMrt,0,G11,展演中心站(規劃中),桃園市,桃園區,N,1,0,0,桃園區中正路與南平路口附近,25.018740899999997,121.2972888
TyMrt,0,G12,南崁轉運站站(規劃中),桃園市,桃園區,N,1,0,0,桃園區中正路與同安街交叉口附近路外農業區用地下方,25.0284778,121.29276809999999
TyMrt,0,G13,南竹站(規劃中),桃園市,蘆竹區,N,1,0,0,蘆竹區中正北路與南竹路路口附近,25.0390027,121.28267620000001
TyMrt,0,G13a,蘆竹工業區站(規劃中),桃園市,蘆竹區,N,1,0,0,中正北路與蘆竹街交叉口附近,25.0498455,121.2758392
TyMrt,0,G14,長興站(規劃中),桃園市,蘆竹區,N,1,0,0,蘆竹區南崁路二段與長興路交叉口,25.0629954,121.2659955
TyMrt,0,G15,航空城一站(規劃中),桃園市,大園區,N,1,0,0,大園區航空城計畫航空產業區新闢道路,25.060765,121.2490332
TyMrt,0,G16,航空城二站(規劃中),桃園市,大園區,N,1,0,0,大園區航空城計畫航空產業區新闢道路-東側,25.0514005,121.2371564
TyMrt,0,G17,航空城三站(規劃中),桃園市,大園區,N,1,0,0,大園區航空城計畫航空產業區新闢道路-西側,25.043789899999997,121.22747360000001
TyMrt,0,G18_A16,橫山站(規劃中),桃園市,大園區,M,2,0,0,大園區機場聯外捷運(藍線)A16橫山站附近,25.036607800000002,121.2157284
TyMrt,0,G31,菓林站(規劃中),桃園市,大園區,N,1,0,0,大園區三民路二段與坑菓路口附近,25.077854300000002,121.25965479999999
TyMrt,0,G32_A11,坑口站(規劃中),桃園市,蘆竹區,M,2,0,0,蘆竹區坑口村機場聯外捷運(藍線)A11坑口站附近,25.086516,121.26644879999999
TyMrt,0,GE01,霄裡站(規劃中),桃園市,八德區,N,1,0,0,八德區「建德路至崁頂路」新闢道路(原生活圈六號道路),24.929983399999998,121.26866899999999
TyMrt,0,GE02,士校站(規劃中),桃園市,中壢區,N,1,0,0,中壢區中山東路四段(慈安三村附近),24.9347786,121.25893590000001
TyMrt,0,GE03,富台國小站(規劃中),桃園市,中壢區,N,1,0,0,中壢區中山東路三段(富台國小附近),24.9415456,121.2508034
TyMrt,0,GE04,榮民服務處站(規劃中),桃園市,中壢區,N,1,0,0,中壢區中山東路二段上與中壢家樂福附近,24.9469925,121.24580390000001
TyMrt,0,GE05,中壢體育園區站(規劃中),桃園市,中壢區,N,1,0,0,中壢區環中東路、福州路附近(中壢體育園區),24.948108800000004,121.2351314
TyMrt,0,GA1,埔頂新光站(規劃中),桃園市,大溪區,N,1,0,0,無資料,24.916699899999998,121.28140559999999
TyMrt,0,GA2,仁善國小站(規劃中),桃園市,大溪區,N,1,0,0,無資料,24.9090908,121.27929099999999
TyMrt,0,GA3,埔頂轉運站站(規劃中),桃園市,大溪區,N,1,0,0,無資料,24.897025600000003,121.2789506
TyMrt,0,BRH2,桃園巨蛋站(規劃中),桃園市,桃園區,N,1,0,0,龜山區萬壽路二段縣立體育場附近,24.991970499999997,121.3226223
TyMrt,0,BRH3,大同路口站(規劃中),桃園市,龜山區,N,1,0,0,龜山區萬壽路二段與大同路路口附近,24.994878,121.3367146
TyMrt,0,BRH4,振興路口站(規劃中),桃園市,龜山區,N,1,0,0,龜山區萬壽路二段與振興路路口附近,25.001884,121.35001840000001
TyMrt,0,BRH5,嶺頂站(規劃中),桃園市,龜山區,N,1,0,0,龜山區東萬壽路與寶石街路口附近,25.0008047,121.36570929999999
TyMrt,0,BRH6,大棟橋站(規劃中),桃園市,龜山區,N,1,0,0,龜山區東萬壽路與大棟橋路口附近,25.0101535,121.38939850000001
TyMrt,0,BRH7,龍華街口站(規劃中),桃園市,龜山區,N,1,0,0,龜山區萬壽路一段與龍華街路口附近,25.0173871,121.4029598
TyMrt,0,O01,山子頂站(規劃中),桃園市,平鎮區,N,1,0,0,平鎮區中豐路山頂段、湧光路路口附近,24.895176,121.2112999
TyMrt,0,O02,南勢站(規劃中),桃園市,平鎮區,N,1,0,0,平鎮區中豐路南勢二段、中庸路路口附近,24.913606899999998,121.21069909999999
TyMrt,0,O03,平鎮站(規劃中),桃園市,平鎮區,N,1,0,0,可與台鐵未來之平鎮站交會轉乘,24.941291800000002,121.21277509999999
TyMrt,0,O04,褒忠祠站(規劃中),桃園市,平鎮區,N,1,0,0,中壢區環南路、復旦路路口附近,24.9508884,121.20666499999999
TyMrt,0,O05,中壢高中站(規劃中),桃園市,中壢區,N,1,0,0,中壢區環西路、志廣路路口附近,24.959830399999998,121.2070869
TyMrt,0,O06_A21,環北站(規劃中),桃園市,中壢區,M,2,0,0,可與機場捷運A21環北站交會轉乘,24.967197,121.22113
TyMrt,0,O07,新街站(規劃中),桃園市,中壢區,N,1,0,0,中壢區中華路、延平路口附近,24.963650199999996,121.23387340000002
TyMrt,0,O08,忠福站(規劃中),桃園市,中壢區,N,1,0,0,中壢區中園路、南園路口北側,24.973609699999997,121.2360191
TyMrt,0,O09,文化站(規劃中),桃園市,中壢區,N,1,0,0,中壢區松江南路、安東路路口附近,24.980845499999997,121.2455463
TyMrt,0,O10,龍山站(規劃中),桃園市,蘆竹區,N,1,0,0,桃園區文中路一段,24.9908425,121.26507279999998
TyMrt,0,O11,龍安站(規劃中),桃園市,桃園區,N,1,0,0,桃園區「擬定北二高內環線南桃園交流道附近地區定區計畫」,24.9929429,121.274128
TyMrt,0,O12,中福站(規劃中),桃園市,桃園區,N,1,0,0,桃園區「擬定北二高內環線南桃園交流道附近地區定區計畫」,24.9960157,121.28794669999999
TyMrt,0,O13,埔子站(規劃中),桃園市,桃園區,N,1,0,0,桃園區大興西路、永安路口西側60公尺計畫園道,25.007139399999996,121.29232409999999
TyMrt,0,O15,大檜溪站(規劃中),桃園市,桃園區,N,1,0,0,可與桃林鐵路未來設置之車站交會轉乘,25.0160065,121.31335259999999
Train,1,1010,萬華站,台北市,萬華區,N,0,1,0,台北市萬華區富福里康定路382號,25.0332823,121.4998481
Train,1,950,五堵站,新北市,汐止區,N,0,1,0,新北市汐止區長安里長安路17號,25.077969600000003,121.667524
Train,1,960,汐止站,新北市,汐止區,N,0,1,0,新北市汐止區信望里信義路1號,25.0679525,121.66121979999998
Train,1,970,汐科站,新北市,汐止區,N,0,1,0,新北市汐止區大同里大同路二段182號,25.0626721,121.64664979999999
Train,1,1030,浮洲站,新北市,板橋區,N,0,1,0,新北市板橋區僑中二街156號,25.004192,121.44473700000002
Train,1,1040,樹林站,新北市,樹林區,N,0,1,0,新北市樹林區鎮前街112號,24.991397199999998,121.42442959999998
Train,1,1050,南樹林站,新北市,樹林區,N,0,1,0,新北市樹林區東山里中山路二段230號,24.980202600000002,121.4087031
Train,1,1060,山佳站,新北市,樹林區,N,0,1,0,新北市樹林區中山里山佳街28號,24.9727283,121.3925439
Train,1,1070,鶯歌站,新北市,鶯歌區,N,0,1,0,新北市鶯歌區東鶯里文化路68號,24.954492000000002,121.355208
Train,1,7290,福隆站,新北市,貢寮區,N,0,1,0,新北市貢寮區福隆里福隆街2號,25.0159203,121.94466820000001
Train,1,7300,貢寮站,新北市,貢寮區,N,0,1,0,新北市貢寮區貢寮里朝陽街33號,25.0159203,121.94466820000001
Train,1,7310,雙溪站,新北市,雙溪區,N,0,1,0,新北市雙溪區新基里朝陽街1號,25.038560999999998,121.866504
Train,1,7320,牡丹站,新北市,雙溪區,N,0,1,0,新北市雙溪區牡丹里51號,25.0586431,121.8519913
Train,1,7330,三貂嶺站,新北市,瑞芳區,N,0,1,0,新北市瑞芳區碩仁里魚寮路1號,25.0655744,121.8226327
Train,1,7331,大華站,新北市,平溪區,N,0,1,0,新北市平溪區南山里六分12之1號,25.049913,121.79754299999999
Train,1,7332,十分站,新北市,平溪區,N,0,1,0,新北市平溪區十分里十分街51號,25.040983800000003,121.7749723
Train,1,7333,望古站,新北市,平溪區,N,0,1,0,新北市平溪區望古里,25.034614899999998,121.7638065
Train,1,7334,嶺腳站,新北市,平溪區,N,0,1,0,新北市平溪區嶺腳里嶺腳寮22號,25.0302012,121.74793829999999
Train,1,7335,平溪站,新北市,平溪區,N,0,1,0,新北市平溪區平溪里中華街12號,25.0255853,121.7400005
Train,1,7336,青桐站,新北市,平溪區,N,0,1,0,新北市平溪區菁桐里菁桐街52號,25.023915,121.7239159
Train,1,7350,猴硐站,新北市,瑞芳區,N,0,1,0,新北市瑞芳區光復里柴寮路70號,25.087009,121.827423
Train,1,7360,瑞芳站,新北市,瑞芳區,N,0,1,0,新北市瑞芳區龍潭里明燈路三段82號,25.108735600000003,121.8059692
Train,1,7362,八斗子站,基隆市,中正區,N,0,1,0,基隆市中正區砂子里省道台2線(與新北市瑞芳區交界處、無站房),25.135287100000003,121.8028626
Train,1,7380,四腳亭站,新北市,瑞芳區,N,0,1,0,新北市瑞芳區吉慶里中央路65號,25.102804000000003,121.761917
Train,1,900,基隆站,基隆市,仁愛區,N,0,1,0,基隆市仁愛區港西街5號,25.131707199999997,121.73829599999999
Train,1,910,三坑站,基隆市,仁愛區,N,0,1,0,基隆市仁愛區德厚里龍安街 206 號,25.1232383,121.7420108
Train,1,920,八堵站,基隆市,暖暖區,N,0,1,0,基隆市暖暖區八南里八堵路142 號地圖 ,25.1083766,121.72903659999999
Train,1,930,七堵站,基隆市,七堵區,N,0,1,0,基隆市七堵區東新街2號,25.093099300000002,121.7140236
Train,1,940,百福站,基隆市,七堵區,N,0,1,0,基隆市七堵區堵南里明德三路 1 之 1 號,25.0779332,121.6938105
Train,1,7361,海科館站,基隆市,中正區,N,0,1,0,基隆市中正區長潭里,25.1375568,121.8000871
Train,1,7390,暖暖站,基隆市,暖暖區,N,0,1,0,基隆市暖暖區暖暖里暖暖街 51 號,25.10229,121.74032
Train,1,1080,桃園站,桃園市,桃園區,N,0,1,0,桃園市桃園區武陵里中正路1號,24.9886541,121.3142952
Train,1,1090,內壢站,桃園市,中壢區,N,0,1,0,桃園市中壢區中原里中華路一段267號,24.9744162955845,121.257387379737
Train,1,1100,中壢站,桃園市,中壢區,N,0,1,0,桃園市中壢區石頭里中和路139號,24.9537299,121.22559440000002
Train,1,1110,埔心站,桃園市,楊梅區,N,0,1,0,桃園市楊梅區埔心里永美路208號,24.919588,121.183502
Train,1,1120,楊梅站,桃園市,楊梅區,N,0,1,0,桃園市楊梅區楊梅里大成路256號,24.914324800000003,121.1464462
Train,1,1130,富岡站,桃園市,楊梅區,N,0,1,0,桃園市楊梅區富岡里成功路37號,24.934427,121.08306699999999
Train,1,1140,新富站,桃園市,楊梅區,N,0,1,0,桃園市楊梅區富豐里富全街1號,24.931064300000003,121.06759369999999
